[Satellite]
VERSION=1.1
NAME=CZ-6A DEB
NICKNAME=CZ-6A DEB
TLE1=1 54587U 22151MP  22342.23780770  .00000513  00000+0  38371-3 0  9990
TLE2=2 54587  98.7653 345.8652 0120332  28.9321 331.8443 13.95551644  3000
STATUS=0
